ONEWEB-0582             
1 54649U 22166H   25343.58743697  .00000012  00000+0 -30081-5 0  9991
2 54649  87.9217 281.7949 0001889  93.5381 266.5969 13.21824708146470
ONEWEB-0583             
1 54650U 22166J   25343.59895502  .00000078  00000+0  15656-3 0  9997
2 54650  87.9216 281.8173 0001875  80.7539 279.3806 13.21824886146489
ONEWEB-0584             
1 54651U 22166K   25343.54299728  .00000105  00000+0  22179-3 0  9990
2 54651  87.9217 281.8149 0001704  89.8326 270.3003 13.21824319146468
ONEWEB-0585             
1 54652U 22166L   25343.56768382  .00000090  00000+0  18631-3 0  9991
2 54652  87.9215 281.7946 0001750  73.9363 286.1963 13.21827569146478
ONEWEB-0586             
1 54653U 22166M   25343.58086412  .00000113  00000+0  24296-3 0  9991
2 54653  87.9216 281.8173 0001826  83.0775 277.0567 13.21825275146477
ONEWEB-0587             
1 54654U 22166N   25343.36364275  .00000000  00000+0 -32209-4 0  9994
2 54654  87.9225 281.8162 0001744  65.0183 295.1132 13.21825367146604
ONEWEB-0589             
1 54655U 22166P   25343.57756849  .00000063  00000+0  12062-3 0  9992
2 54655  87.9215 281.8086 0001810 106.2570 253.8764 13.21826542146496
ONEWEB-0590             
1 54656U 22166Q   25343.52640844  .00000025  00000+0  28960-4 0  9998
2 54656  87.9217 281.7957 0001361  76.2204 283.9081 13.21825305146476
ONEWEB-0591             
1 54657U 22166R   25343.53806108  .00000082  00000+0  16785-3 0  9991
2 54657  87.9216 281.8170 0001728  80.3087 279.8242 13.21824097146500
ONEWEB-0592             
1 54658U 22166S   25343.54135827  .00000089  00000+0  18435-3 0  9997
2 54658  87.9225 281.7789 0001743  80.3100 279.8231 13.21824580146380
ONEWEB-0593             
1 54659U 22166T   25343.56440166  .00000118  00000+0  25452-3 0  9995
2 54659  87.9215 281.8014 0001897  80.6348 279.5001 13.21825703146491
ONEWEB-0594             
1 54660U 22166U   25343.58413939  .00000154  00000+0  34153-3 0  9995
2 54660  87.9216 281.8155 0001854  76.8105 283.3236 13.21825631146517
ONEWEB-0595             
1 54661U 22166V   25343.33400611  .00000114  00000+0  24442-3 0  9998
2 54661  87.9214 281.8383 0001750  72.2958 287.8367 13.21824110146458
ONEWEB-0596             
1 54662U 22166W   25343.53476838  .00000128  00000+0  27784-3 0  9992
2 54662  87.9214 281.8153 0001728  76.8601 283.2726 13.21824093146486
ONEWEB-0597             
1 54663U 22166X   25343.36528478 -.00000005  00000+0 -42865-4 0  9996
2 54663  87.9217 281.8536 0001798  82.0717 278.0621 13.21824854146468
ONEWEB-0600             
1 54664U 22166Y   25343.57426697  .00000032  00000+0  46374-4 0  9997
2 54664  87.9216 281.8028 0001939  80.5556 279.5798 13.21824716146463
ONEWEB-0601             
1 54665U 22166Z   25343.56603992  .00000065  00000+0  12571-3 0  9999
2 54665  87.9218 281.8224 0001793  87.2405 272.8934 13.21824704146655
