[{"OBJECT_NAME":"ONEWEB-0582","OBJECT_ID":"2022-166H","EPOCH":"2025-12-09T14:05:54.554208","MEAN_MOTION":13.21824708,"ECCENTRICITY":0.0001889,"INCLINATION":87.9217,"RA_OF_ASC_NODE":281.7949,"ARG_OF_PERICENTER":93.5381,"MEAN_ANOMALY":266.5969,"EPHEMERIS_TYPE":0,"CLASSIFICATION_TYPE":"U","NORAD_CAT_ID":54649,"ELEMENT_SET_NO":999,"REV_AT_EPOCH":14647,"BSTAR":-3.008074e-6,"MEAN_MOTION_DOT":1.2e-7,"MEAN_MOTION_DDOT":0},{"OBJECT_NAME":"ONEWEB-0583","OBJECT_ID":"2022-166J","EPOCH":"2025-12-09T14:22:29.713728","MEAN_MOTION":13.21824886,"ECCENTRICITY":0.00018751,"INCLINATION":87.9216,"RA_OF_ASC_NODE":281.8173,"ARG_OF_PERICENTER":80.7539,"MEAN_ANOMALY":279.3806,"EPHEMERIS_TYPE":0,"CLASSIFICATION_TYPE":"U","NORAD_CAT_ID":54650,"ELEMENT_SET_NO":999,"REV_AT_EPOCH":14648,"BSTAR":0.00015655522,"MEAN_MOTION_DOT":7.8e-7,"MEAN_MOTION_DDOT":0},{"OBJECT_NAME":"ONEWEB-0584","OBJECT_ID":"2022-166K","EPOCH":"2025-12-09T13:01:54.964992","MEAN_MOTION":13.21824319,"ECCENTRICITY":0.00017048,"INCLINATION":87.9217,"RA_OF_ASC_NODE":281.8149,"ARG_OF_PERICENTER":89.8326,"MEAN_ANOMALY":270.3003,"EPHEMERIS_TYPE":0,"CLASSIFICATION_TYPE":"U","NORAD_CAT_ID":54651,"ELEMENT_SET_NO":999,"REV_AT_EPOCH":14646,"BSTAR":0.00022178585,"MEAN_MOTION_DOT":1.05e-6,"MEAN_MOTION_DDOT":0},{"OBJECT_NAME":"ONEWEB-0585","OBJECT_ID":"2022-166L","EPOCH":"2025-12-09T13:37:27.882048","MEAN_MOTION":13.21827569,"ECCENTRICITY":0.00017503,"INCLINATION":87.9215,"RA_OF_ASC_NODE":281.7946,"ARG_OF_PERICENTER":73.9363,"MEAN_ANOMALY":286.1963,"EPHEMERIS_TYPE":0,"CLASSIFICATION_TYPE":"U","NORAD_CAT_ID":54652,"ELEMENT_SET_NO":999,"REV_AT_EPOCH":14647,"BSTAR":0.00018630554,"MEAN_MOTION_DOT":9.0e-7,"MEAN_MOTION_DDOT":0},{"OBJECT_NAME":"ONEWEB-0586","OBJECT_ID":"2022-166M","EPOCH":"2025-12-09T13:56:26.659968","MEAN_MOTION":13.21825275,"ECCENTRICITY":0.00018269,"INCLINATION":87.9216,"RA_OF_ASC_NODE":281.8173,"ARG_OF_PERICENTER":83.0775,"MEAN_ANOMALY":277.0567,"EPHEMERIS_TYPE":0,"CLASSIFICATION_TYPE":"U","NORAD_CAT_ID":54653,"ELEMENT_SET_NO":999,"REV_AT_EPOCH":14647,"BSTAR":0.00024295707,"MEAN_MOTION_DOT":1.13e-6,"MEAN_MOTION_DDOT":0},{"OBJECT_NAME":"ONEWEB-0587","OBJECT_ID":"2022-166N","EPOCH":"2025-12-09T08:43:38.733600","MEAN_MOTION":13.21825367,"ECCENTRICITY":0.00017448,"INCLINATION":87.9225,"RA_OF_ASC_NODE":281.8162,"ARG_OF_PERICENTER":65.0183,"MEAN_ANOMALY":295.1132,"EPHEMERIS_TYPE":0,"CLASSIFICATION_TYPE":"U","NORAD_CAT_ID":54654,"ELEMENT_SET_NO":999,"REV_AT_EPOCH":14660,"BSTAR":-3.2209187e-5,"MEAN_MOTION_DOT":0,"MEAN_MOTION_DDOT":0},{"OBJECT_NAME":"ONEWEB-0589","OBJECT_ID":"2022-166P","EPOCH":"2025-12-09T13:51:41.917536","MEAN_MOTION":13.21826542,"ECCENTRICITY":0.00018109,"INCLINATION":87.9215,"RA_OF_ASC_NODE":281.8086,"ARG_OF_PERICENTER":106.257,"MEAN_ANOMALY":253.8764,"EPHEMERIS_TYPE":0,"CLASSIFICATION_TYPE":"U","NORAD_CAT_ID":54655,"ELEMENT_SET_NO":999,"REV_AT_EPOCH":14649,"BSTAR":0.0001206151,"MEAN_MOTION_DOT":6.3e-7,"MEAN_MOTION_DDOT":0},{"OBJECT_NAME":"ONEWEB-0590","OBJECT_ID":"2022-166Q","EPOCH":"2025-12-09T12:38:01.689216","MEAN_MOTION":13.21825305,"ECCENTRICITY":0.00013611,"INCLINATION":87.9217,"RA_OF_ASC_NODE":281.7957,"ARG_OF_PERICENTER":76.2204,"MEAN_ANOMALY":283.9081,"EPHEMERIS_TYPE":0,"CLASSIFICATION_TYPE":"U","NORAD_CAT_ID":54656,"ELEMENT_SET_NO":999,"REV_AT_EPOCH":14647,"BSTAR":2.8959553e-5,"MEAN_MOTION_DOT":2.5e-7,"MEAN_MOTION_DDOT":0},{"OBJECT_NAME":"ONEWEB-0591","OBJECT_ID":"2022-166R","EPOCH":"2025-12-09T12:54:48.477312","MEAN_MOTION":13.21824097,"ECCENTRICITY":0.00017283,"INCLINATION":87.9216,"RA_OF_ASC_NODE":281.817,"ARG_OF_PERICENTER":80.3087,"MEAN_ANOMALY":279.8242,"EPHEMERIS_TYPE":0,"CLASSIFICATION_TYPE":"U","NORAD_CAT_ID":54657,"ELEMENT_SET_NO":999,"REV_AT_EPOCH":14650,"BSTAR":0.00016785193,"MEAN_MOTION_DOT":8.2e-7,"MEAN_MOTION_DDOT":0},{"OBJECT_NAME":"ONEWEB-0592","OBJECT_ID":"2022-166S","EPOCH":"2025-12-09T12:59:33.354528","MEAN_MOTION":13.2182458,"ECCENTRICITY":0.00017433,"INCLINATION":87.9225,"RA_OF_ASC_NODE":281.7789,"ARG_OF_PERICENTER":80.31,"MEAN_ANOMALY":279.8231,"EPHEMERIS_TYPE":0,"CLASSIFICATION_TYPE":"U","NORAD_CAT_ID":54658,"ELEMENT_SET_NO":999,"REV_AT_EPOCH":14638,"BSTAR":0.00018435452,"MEAN_MOTION_DOT":8.9e-7,"MEAN_MOTION_DDOT":0},{"OBJECT_NAME":"ONEWEB-0593","OBJECT_ID":"2022-166T","EPOCH":"2025-12-09T13:32:44.303424","MEAN_MOTION":13.21825703,"ECCENTRICITY":0.00018977,"INCLINATION":87.9215,"RA_OF_ASC_NODE":281.8014,"ARG_OF_PERICENTER":80.6348,"MEAN_ANOMALY":279.5001,"EPHEMERIS_TYPE":0,"CLASSIFICATION_TYPE":"U","NORAD_CAT_ID":54659,"ELEMENT_SET_NO":999,"REV_AT_EPOCH":14649,"BSTAR":0.00025452362,"MEAN_MOTION_DOT":1.18e-6,"MEAN_MOTION_DDOT":0},{"OBJECT_NAME":"ONEWEB-0594","OBJECT_ID":"2022-166U","EPOCH":"2025-12-09T14:01:09.643296","MEAN_MOTION":13.21825631,"ECCENTRICITY":0.00018543,"INCLINATION":87.9216,"RA_OF_ASC_NODE":281.8155,"ARG_OF_PERICENTER":76.8105,"MEAN_ANOMALY":283.3236,"EPHEMERIS_TYPE":0,"CLASSIFICATION_TYPE":"U","NORAD_CAT_ID":54660,"ELEMENT_SET_NO":999,"REV_AT_EPOCH":14651,"BSTAR":0.00034152659,"MEAN_MOTION_DOT":1.54e-6,"MEAN_MOTION_DDOT":0},{"OBJECT_NAME":"ONEWEB-0595","OBJECT_ID":"2022-166V","EPOCH":"2025-12-09T08:00:58.127904","MEAN_MOTION":13.2182411,"ECCENTRICITY":0.00017507,"INCLINATION":87.9214,"RA_OF_ASC_NODE":281.8383,"ARG_OF_PERICENTER":72.2958,"MEAN_ANOMALY":287.8367,"EPHEMERIS_TYPE":0,"CLASSIFICATION_TYPE":"U","NORAD_CAT_ID":54661,"ELEMENT_SET_NO":999,"REV_AT_EPOCH":14645,"BSTAR":0.000244419,"MEAN_MOTION_DOT":1.14e-6,"MEAN_MOTION_DDOT":0},{"OBJECT_NAME":"ONEWEB-0596","OBJECT_ID":"2022-166W","EPOCH":"2025-12-09T12:50:03.988032","MEAN_MOTION":13.21824093,"ECCENTRICITY":0.0001728,"INCLINATION":87.9214,"RA_OF_ASC_NODE":281.8153,"ARG_OF_PERICENTER":76.8601,"MEAN_ANOMALY":283.2726,"EPHEMERIS_TYPE":0,"CLASSIFICATION_TYPE":"U","NORAD_CAT_ID":54662,"ELEMENT_SET_NO":999,"REV_AT_EPOCH":14648,"BSTAR":0.00027784381,"MEAN_MOTION_DOT":1.28e-6,"MEAN_MOTION_DDOT":0},{"OBJECT_NAME":"ONEWEB-0597","OBJECT_ID":"2022-166X","EPOCH":"2025-12-09T08:46:00.604992","MEAN_MOTION":13.21824854,"ECCENTRICITY":0.00017984,"INCLINATION":87.9217,"RA_OF_ASC_NODE":281.8536,"ARG_OF_PERICENTER":82.0717,"MEAN_ANOMALY":278.0621,"EPHEMERIS_TYPE":0,"CLASSIFICATION_TYPE":"U","NORAD_CAT_ID":54663,"ELEMENT_SET_NO":999,"REV_AT_EPOCH":14646,"BSTAR":-4.2865476e-5,"MEAN_MOTION_DOT":-5.0e-8,"MEAN_MOTION_DDOT":0},{"OBJECT_NAME":"ONEWEB-0600","OBJECT_ID":"2022-166Y","EPOCH":"2025-12-09T13:46:56.666208","MEAN_MOTION":13.21824716,"ECCENTRICITY":0.00019396,"INCLINATION":87.9216,"RA_OF_ASC_NODE":281.8028,"ARG_OF_PERICENTER":80.5556,"MEAN_ANOMALY":279.5798,"EPHEMERIS_TYPE":0,"CLASSIFICATION_TYPE":"U","NORAD_CAT_ID":54664,"ELEMENT_SET_NO":999,"REV_AT_EPOCH":14646,"BSTAR":4.6373887e-5,"MEAN_MOTION_DOT":3.2e-7,"MEAN_MOTION_DDOT":0},{"OBJECT_NAME":"ONEWEB-0601","OBJECT_ID":"2022-166Z","EPOCH":"2025-12-09T13:35:05.849088","MEAN_MOTION":13.21824704,"ECCENTRICITY":0.0001793,"INCLINATION":87.9218,"RA_OF_ASC_NODE":281.8224,"ARG_OF_PERICENTER":87.2405,"MEAN_ANOMALY":272.8934,"EPHEMERIS_TYPE":0,"CLASSIFICATION_TYPE":"U","NORAD_CAT_ID":54665,"ELEMENT_SET_NO":999,"REV_AT_EPOCH":14665,"BSTAR":0.000125708,"MEAN_MOTION_DOT":6.5e-7,"MEAN_MOTION_DDOT":0}]
